SPACEBEE-7              
1 43816U 18099BL  23129.11779154  .00010888  00000+0  83420-3 0  9995
2 43816  97.6025 194.7329 0012449 224.0821 135.9412 15.01959283241440
SPACEBEE-5              
1 43817U 18099BM  23129.42139253  .00046471  00000+0  24840-2 0  9997
2 43817  97.5926 201.4624 0004949 201.9065 158.1956 15.14913928241826
SPACEBEE-6              
1 43818U 18099BN  23129.42311120  .00016513  00000+0  11614-2 0  9992
2 43818  97.5896 196.9226 0011357 239.5122 120.4983 15.05100186241737
SPACEBEE-21             
1 46300U 20061AE  23129.20494108  .00331735  00000+0  33741-2 0  9998
2 46300  97.3983 206.6001 0005785 228.7335 131.3426 15.64085550148354
SPACEBEE-20             
1 46301U 20061AF  23129.15771083  .00318960  00000+0  33087-2 0  9991
2 46301  97.4054 206.7484 0006524 233.2064 126.8596 15.63617247148342
SPACEBEE-19             
1 46303U 20061AH  23129.27315269  .00536237  00000+0  38946-2 0  9994
2 46303  97.3970 207.4694 0007801 237.6073 122.4436 15.71796237148417
SPACEBEE-18             
1 46304U 20061AJ  23129.17599873  .00746888  00000+0  40251-2 0  9996
2 46304  97.3942 207.5687 0009634 245.4097 114.6167 15.78152649148413
SPACEBEE-17             
1 46306U 20061AL  23129.45272380  .02750897  86780-2  47795-2 0  9999
2 46306  97.3896 209.0627 0014473 266.9682  92.9942 16.04239045148571
SPACEBEE-62             
1 47429U 21006S   23129.12704557  .00036742  00000+0  12673-2 0  9995
2 47429  97.3889 189.7092 0010328 201.6865 158.3939 15.29842154126873
SPACEBEE-61             
1 47431U 21006U   23129.12416028  .00422507  00000+0  37942-2 0  9995
2 47431  97.3876 193.9698 0008864 223.9734 136.0822 15.66930909128069
SPACEBEE-49             
1 47432U 21006V   23129.42133891  .00382250  00000+0  36944-2 0  9994
2 47432  97.3898 194.0982 0008334 204.7702 155.3159 15.65210595128097
SPACEBEE-60             
1 47433U 21006W   23129.15616379  .00442606  00000+0  35923-2 0  9990
2 47433  97.3874 194.1714 0008474 216.5216 143.5469 15.69373398128078
SPACEBEE-63             
1 47442U 21006AF  23129.12325114  .00031044  00000+0  12456-2 0  9997
2 47442  97.3926 186.5328 0004224 213.1870 146.9104 15.24920815126636
SPACEBEE-50             
1 47443U 21006AG  23129.17150386  .00322412  00000+0  33881-2 0  9997
2 47443  97.3890 193.7540 0007576 210.9760 149.1052 15.63266796127091
SPACEBEE-55             
1 47459U 21006AY  23129.15024996  .00034264  00000+0  12704-2 0  9995
2 47459  97.3851 187.5895 0008622 213.5344 146.5351 15.27503001126768
SPACEBEE-57             
1 47465U 21006BE  23129.13870844  .00029362  00000+0  11804-2 0  9994
2 47465  97.3871 185.8828 0003714 215.9564 144.1424 15.24869664126639
SPACEBEE-56             
1 47468U 21006BH  23129.41538994  .01109752  00000+0  43617-2 0  9995
2 47468  97.3766 194.8354 0009641 219.6118 140.4448 15.84186209127235
SPACEBEE-45             
1 47470U 21006BK  23129.10907461  .02896390  12626-1  47242-2 0  9992
2 47470  97.3676 195.2190 0014583 256.3909 103.5749 16.06314881127236
SPACEBEE-73             
1 48635U 21006FB  23129.06227817  .02334165  43965-2  45113-2 0  9994
2 48635  97.1361 174.6092 0012456 230.2739 129.7444 16.01370579127378
SPACEBEE-74             
1 48636U 21006FC  23129.09132011  .00718200  00000+0  37894-2 0  9990
2 48636  97.1440 173.7014 0010966 197.8122 162.2763 15.78693855127317
SPACEBEE-75             
1 48637U 21006FD  23129.05808638  .00478395  00000+0  35208-2 0  9997
2 48637  97.1469 173.1472 0010507 184.4777 175.6395 15.71621227127271
SPACEBEENZ-10           
1 48882U 21059D   23129.29153129  .00113971  00000+0  24483-2 0  9990
2 48882  97.5808 268.0055 0001914  33.4832 326.6536 15.44253386103638
SPACEBEE-100            
1 48883U 21059E   23129.31346510  .00040838  00000+0  14240-2 0  9993
2 48883  97.5896 265.2609 0006304  56.5904 303.5938 15.29495333103446
SPACEBEE-101            
1 48884U 21059F   23129.31479354  .00038894  00000+0  13831-2 0  9991
2 48884  97.5903 265.1249 0006268  60.0264 300.1597 15.28865430103434
SPACEBEE-102            
1 48886U 21059H   23129.30043234  .00039197  00000+0  13916-2 0  9997
2 48886  97.5906 265.1397 0006091  58.5670 301.6164 15.28918339103433
SPACEBEENZ-9            
1 48887U 21059J   23128.83696748  .00104682  00000+0  22534-2 0  9997
2 48887  97.5803 267.5181 0001953  39.9743 320.1648 15.44229744103563
SPACEBEE-103            
1 48888U 21059K   23129.32146827  .00041162  00000+0  14274-2 0  9996
2 48888  97.5907 265.4424 0006231  56.8578 303.3259 15.29674372103457
SPACEBEENZ-7            
1 48889U 21059L   23129.07974094  .00111870  00000+0  23573-2 0  9990
2 48889  97.5822 268.1450 0002174  31.7054 328.4324 15.44831850103618
SPACEBEE-104            
1 48890U 21059M   23129.32628689  .00041548  00000+0  14290-2 0  9996
2 48890  97.5902 265.3864 0006129  59.1101 301.0741 15.29940264103453
SPACEBEENZ-8            
1 48891U 21059N   23129.32828818  .00113394  00000+0  24528-2 0  9997
2 48891  97.5831 268.2855 0002263  35.5797 324.5601 15.44049978103646
SPACEBEE-106            
1 48893U 21059Q   23129.29988588  .00039036  00000+0  13797-2 0  9992
2 48893  97.5928 265.4745 0006823  59.6496 300.5417 15.29060797103443
SPACEBEE-107            
1 48894U 21059R   23129.31836643  .00043026  00000+0  14527-2 0  9996
2 48894  97.5927 265.9300 0006289  56.2275 303.9564 15.30531738103472
SPACEBEE-108            
1 48895U 21059S   23129.29328496  .00038945  00000+0  13734-2 0  9999
2 48895  97.5921 265.4499 0006792  58.8770 301.3135 15.29135550103441
SPACEBEE-105            
1 48896U 21059T   23128.96919299  .00039551  00000+0  13675-2 0  9998
2 48896  97.5907 264.9451 0006222  49.4200 310.7581 15.29779915103392
SPACEBEE-109            
1 48897U 21059U   23129.43453458  .00044436  00000+0  15154-2 0  9994
2 48897  97.5927 265.8893 0006610  55.9935 304.1932 15.30196899103486
SPACEBEE-110            
1 48899U 21059W   23129.32674130  .00042306  00000+0  14320-2 0  9994
2 48899  97.5930 266.0757 0006731  53.2834 306.9024 15.30451471103489
SPACEBEE-111            
1 48904U 21059AB  23129.28195792  .00045060  00000+0  14753-2 0  9998
2 48904  97.5937 266.5025 0006984  51.4382 308.7484 15.31510649103501
SPACEBEE-121            
1 52009U 22026B   23129.52949072  .00034926  00000+0  12241-2 0  9998
2 52009  97.5062 132.7617 0019595 207.7238 152.2958 15.29198657 63725
SPACEBEE-114            
1 52010U 22026C   23129.53133587  .00036364  00000+0  12519-2 0  9993
2 52010  97.5084 133.0353 0018609 208.7464 151.2752 15.29790128 63743
SPACEBEE-126            
1 52011U 22026D   23129.53716256  .00036366  00000+0  12514-2 0  9991
2 52011  97.5072 132.9516 0019199 205.8496 154.1787 15.29794362 63731
SPACEBEE-118            
1 52012U 22026E   23129.56623792  .00038113  00000+0  12936-2 0  9997
2 52012  97.5074 133.2542 0018144 209.9439 150.0765 15.30249690 63763
SPACEBEE-120            
1 52013U 22026F   23129.55950068  .00037346  00000+0  12792-2 0  9993
2 52013  97.5067 133.0657 0020095 204.1896 155.8403 15.29921006 63749
SPACEBEE-122            
1 52014U 22026G   23129.53427981  .00037108  00000+0  12600-2 0  9999
2 52014  97.5066 133.1021 0018786 205.7607 154.2700 15.30230457 63744
SPACEBEE-119            
1 52015U 22026H   23129.58571113  .00035223  00000+0  12295-2 0  9998
2 52015  97.5077 132.9363 0019710 207.8333 152.1854 15.29327053 63733
SPACEBEE-115            
1 52016U 22026J   23129.53316819  .00035644  00000+0  12440-2 0  9993
2 52016  97.5088 133.0282 0019289 207.4299 152.5924 15.29337532 63731
SPACEBEENZ-14           
1 52018U 22026L   23129.48168869  .00058811  00000+0  17069-2 0  9992
2 52018  97.5043 133.9353 0017532 199.7382 160.3184 15.35149371 63797
SPACEBEENZ-11           
1 52019U 22026M   23129.51506717  .00061938  00000+0  17205-2 0  9991
2 52019  97.5032 134.1870 0017105 198.4025 161.6602 15.36515677 63773
SPACEBEE-127            
1 52020U 22026N   23129.57793762  .00033442  00000+0  11846-2 0  9991
2 52020  97.5072 132.9049 0019674 207.6188 152.4008 15.28859703 63689
SPACEBEE-125            
1 52021U 22026P   23129.53196171  .00039097  00000+0  13246-2 0  9997
2 52021  97.5068 133.2321 0020464 206.4745 153.5452 15.30258673 63628
SPACEBEE-117            
1 52022U 22026Q   23129.55364990  .00035014  00000+0  12299-2 0  9998
2 52022  97.5085 133.0004 0019589 207.6206 152.3995 15.29125337 63600
SPACEBEE-116            
1 52023U 22026R   23129.51962564  .00034511  00000+0  12009-2 0  9996
2 52023  97.5089 133.0509 0019213 207.1790 152.8446 15.29442292 63600
SPACEBEE-113            
1 52024U 22026S   23129.54233412  .00036535  00000+0  12488-2 0  9992
2 52024  97.5077 133.1454 0020812 204.0021 156.0251 15.29979459 63619
SPACEBEE-112            
1 52025U 22026T   23129.57518753  .00043258  00000+0  13823-2 0  9994
2 52025  97.5064 133.5475 0018540 203.6554 156.3836 15.32156631 63642
SPACEBEENZ-13           
1 52026U 22026U   23129.52145260  .00056330  00000+0  16198-2 0  9992
2 52026  97.5036 134.0264 0017616 199.8740 160.1819 15.35451418 63581
SPACEBEE-123            
1 52027U 22026V   23129.57092878  .00034609  00000+0  12098-2 0  9994
2 52027  97.5067 132.8877 0019483 207.4051 152.6163 15.29288476 63513
SPACEBEENZ-12           
1 52028U 22026W   23129.51980952  .00048817  00000+0  14866-2 0  9999
2 52028  97.5104 133.8500 0017993 202.1558 157.8909 15.33672877 63655
SPACEBEE-124            
1 52029U 22026X   23129.58340653  .00034527  00000+0  12083-2 0  9997
2 52029  97.5063 132.8625 0019545 207.2939 152.7275 15.29250499 62231
SPACEBEE-136            
1 52164U 22033H   23129.22440531  .00087774  00000+0  17843-2 0  9993
2 52164  97.3455 213.0549 0005064 280.2599  79.8079 15.45977392 61501
SPACEBEE-138            
1 52166U 22033K   23129.45074934  .00101947  00000+0  20881-2 0  9995
2 52166  97.3475 213.3276 0006080 272.6256  87.4297 15.45693595 61539
SPACEBEE-130            
1 52176U 22033V   23129.53196946  .00085762  00000+0  17249-2 0  9993
2 52176  97.3463 213.4500 0004102 267.4519  92.6260 15.46301790 61559
